     2.10           N: GPS NAV DATA                         RINEX VERSION / TYPE
teqc  2011Oct11     IGN-E (SPG)         20150127 14:00:49UTCPGM / RUN BY / DATE
Linux 2.4.21-27.ELsmp|Opteron|gcc -static|Linux x86_64|=+   COMMENT
                                                            END OF HEADER
 9 15  1 27 13 59 44.0-6.821239367127D-05-1.216449163621D-11 0.000000000000D+00
    5.000000000000D+00 8.884375000000D+01 4.531260255902D-09 1.433050412302D-02
    4.498288035393D-06 3.241528756917D-04 8.575618267059D-06 5.153667335510D+03
    2.231840000000D+05 2.048909664154D-08 2.287998880109D+00-3.166496753693D-08
    9.582584200867D-01 2.114687500000D+02 2.265702108250D+00-8.099623194369D-09
   -1.607209851318D-11 1.000000000000D+00 1.829000000000D+03 0.000000000000D+00
    2.000000000000D+00 0.000000000000D+00 4.656612873077D-10 5.000000000000D+00
    2.200200000000D+05
13 15  1 27 13 59 44.0-8.269026875496D-05-3.524291969370D-12 0.000000000000D+00
    7.000000000000D+00 7.231250000000D+01 4.254463004116D-09-1.579630671101D+00
    3.779307007790D-06 5.352150066756D-03 7.919967174530D-06 5.153689023972D+03
    2.231840000000D+05-1.415610313416D-07 2.401242250955D+00 2.235174179077D-08
    9.751321765692D-01 2.320937500000D+02 2.069015499372D+00-7.990689887549D-09
   -2.857261822975D-11 1.000000000000D+00 1.829000000000D+03 0.000000000000D+00
    2.000000000000D+00 0.000000000000D+00-1.164153218269D-08 7.000000000000D+00
    2.202300000000D+05
28 15  1 27 14  0  0.0 4.153726622462D-04 2.614797267597D-12 0.000000000000D+00
    4.800000000000D+01-6.993750000000D+01 3.793015235232D-09 1.242387222323D+00
   -3.775581717491D-06 1.973921945319D-02 8.221715688705D-06 5.153694528580D+03
    2.232000000000D+05-2.905726432800D-07-1.829309329596D+00-3.315508365631D-07
    9.881376002173D-01 2.395937500000D+02-1.676160717839D+00-8.033548937192D-09
   -3.857303365606D-11 1.000000000000D+00 1.829000000000D+03 0.000000000000D+00
    2.000000000000D+00 0.000000000000D+00-1.117587089539D-08 4.800000000000D+01
    2.212200000000D+05
